BANDWAGON-2 OBJECT D    
1 62380U 24247D   26068.52261193  .00011259  00000+0  40119-3 0  9994
2 62380  44.9954 115.6710 0003488 351.1453   8.9368 15.29076102 67732
STARLINK-32418          
1 62429U 24249W   26068.09725305  .00037322  00000+0  13582-2 0  9994
2 62429  43.0035 317.3630 0002836 248.5584 111.4966 15.27594460 67721
